0 SL-16 DEB
1 31795U 07029D   13284.12107745  .00000046  00000-0  87514-4 0  9964
2 31795 070.9476 326.1654 0221634 096.8527 358.2275 13.67544816313747
0 SL-16 DEB
1 31795U 07029D   13286.53041791  .00000046  00000-0  86958-4 0  9971
2 31795 070.9471 321.4757 0221636 093.4527 339.8368 13.67545208314070
0 SL-16 DEB
1 31795U 07029D   13288.79361980  .00000052  00000-0  93058-4 0  9983
2 31795 070.9468 317.0702 0221632 090.2540 321.9879 13.67545866314386
0 SL-16 DEB
1 31795U 07029D   13291.13537799  .00000038  00000-0  79643-4 0  9997
2 31795 070.9468 312.5115 0221641 086.9443 330.8908 13.67546420314703
0 SL-16 DEB
1 31795U 07029D   13293.48756784  .00000067  00000-0  10785-3 0    00
2 31795 070.9469 307.9325 0221674 083.6298 031.1468 13.67546650315026
0 SL-16 DEB
1 31795U 07029D   13295.83005858  .00000107  00000-0  14795-3 0    11
2 31795 070.9468 303.3726 0221710 080.3262 043.6581 13.67546967315346
